O3B MPOWER F1           
1 54755U 22174A   23328.46140569 -.00000017  00000+0  00000+0 0  9992
2 54755   0.0542  18.3241 0005672 239.8611 113.8622  5.00118327 18535
